[{"OBJECT_NAME":"STARLINK-31421","OBJECT_ID":"2024-046T","EPOCH":"2026-03-09T13:26:08.454912","MEAN_MOTION":15.30185382,"ECCENTRICITY":9.45e-5,"INCLINATION":53.1614,"RA_OF_ASC_NODE":155.6822,"ARG_OF_PERICENTER":117.4046,"MEAN_ANOMALY":242.7051,"EPHEMERIS_TYPE":0,"CLASSIFICATION_TYPE":"U","NORAD_CAT_ID":59218,"ELEMENT_SET_NO":999,"REV_AT_EPOCH":11302,"BSTAR":3.0686e-5,"MEAN_MOTION_DOT":5.5e-6,"MEAN_MOTION_DDOT":0},{"OBJECT_NAME":"FENGYUN 1C DEB","OBJECT_ID":"1999-025CUF","EPOCH":"2026-03-09T01:34:38.628768","MEAN_MOTION":15.17132493,"ECCENTRICITY":0.01273829,"INCLINATION":98.8955,"RA_OF_ASC_NODE":293.2327,"ARG_OF_PERICENTER":89.1897,"MEAN_ANOMALY":272.3925,"EPHEMERIS_TYPE":0,"CLASSIFICATION_TYPE":"U","NORAD_CAT_ID":32185,"ELEMENT_SET_NO":999,"REV_AT_EPOCH":96318,"BSTAR":0.0036969643,"MEAN_MOTION_DOT":0.00091378,"MEAN_MOTION_DDOT":0}]
